{"type": "FeatureCollection", "features": [ {"type": "Feature", "properties": {"norad_id": 28659, "name": "DIRECTV 8", "group": "intelsat", "lat": 0.029909869189525744, "lon": 100.70849140098103, "alt_km": 35798.44022899278, "timestamp": "2025-12-05T09:41:18.789297+00:00", "meta": {"OBJECT_NAME": "DIRECTV 8", "OBJECT_ID": "2005-019A", "EPOCH": "2025-12-04T09:44:09.105216", "MEAN_MOTION": 1.00271046, "ECCENTRICITY": 0.0003266, "INCLINATION": 0.0176, "RA_OF_ASC_NODE": 322.8972, "ARG_OF_PERICENTER": 289.5965, "MEAN_ANOMALY": 207.9778, "EPHEMERIS_TYPE": 0, "CLASSIFICATION_TYPE": "U", "NORAD_CAT_ID": 28659, "ELEMENT_SET_NO": 999, "REV_AT_EPOCH": 7512, "BSTAR": 0, "MEAN_MOTION_DOT": 1.6e-07, "MEAN_MOTION_DDOT": 0}, "tle": {"line1": "1 28659U 05019A   25338.40566094  .00000016  00000+0  00000+0 0  9995", "line2": "2 28659   0.0176 322.8972 0003266 289.5965 207.9778  1.00271046 75126"}}, "geometry": {"type": "Point", "coordinates": [100.70849140098103, 0.029909869189525744]}}, {"type": "Feature", "properties": {"norad_id": 28702, "name": "GALAXY 28 (G-28)", "group": "intelsat", "lat": 2.14560521917916, "lon": 131.0254284541706, "alt_km": 35791.66042437381, "timestamp": "2025-12-05T09:41:18.789310+00:00", "meta": {"OBJECT_NAME": "GALAXY 28 (G-28)", "OBJECT_ID": "2005-022A", "EPOCH": "2025-12-04T13:18:14.537952", "MEAN_MOTION": 1.00272119, "ECCENTRICITY": 0.0002636, "INCLINATION": 2.7977, "RA_OF_ASC_NODE": 81.3766, "ARG_OF_PERICENTER": 171.5466, "MEAN_ANOMALY": 291.5686, "EPHEMERIS_TYPE": 0, "CLASSIFICATION_TYPE": "U", "NORAD_CAT_ID": 28702, "ELEMENT_SET_NO": 999, "REV_AT_EPOCH": 5002, "BSTAR": 0, "MEAN_MOTION_DOT": -1.74e-06, "MEAN_MOTION_DDOT": 0}, "tle": {"line1": "1 28702U 05022A   25338.55433493 -.00000174  00000+0  00000+0 0  9996", "line2": "2 28702   2.7977  81.3766 0002636 171.5466 291.5686  1.00272119 50028"}}, "geometry": {"type": "Point", "coordinates": [131.0254284541706, 2.14560521917916]}}, {"type": "Feature", "properties": {"norad_id": 29236, "name": "GALAXY 16 (G-16)", "group": "intelsat", "lat": -0.00014926155705541547, "lon": 120.74035438354184, "alt_km": 35795.205319870605, "timestamp": "2025-12-05T09:41:18.789322+00:00", "meta": {"OBJECT_NAME": "GALAXY 16 (G-16)", "OBJECT_ID": "2006-023A", "EPOCH": "2025-12-04T09:49:53.556096", "MEAN_MOTION": 1.00271171, "ECCENTRICITY": 0.0002953, "INCLINATION": 0.0259, "RA_OF_ASC_NODE": 211.8761, "ARG_OF_PERICENTER": 44.3815, "MEAN_ANOMALY": 225.6909, "EPHEMERIS_TYPE": 0, "CLASSIFICATION_TYPE": "U", "NORAD_CAT_ID": 29236, "ELEMENT_SET_NO": 999, "REV_AT_EPOCH": 7102, "BSTAR": 0, "MEAN_MOTION_DOT": -1.12e-06, "MEAN_MOTION_DDOT": 0}, "tle": {"line1": "1 29236U 06023A   25338.40964764 -.00000112  00000+0  00000+0 0  9997", "line2": "2 29236   0.0259 211.8761 0002953  44.3815 225.6909  1.00271171 71023"}}, "geometry": {"type": "Point", "coordinates": [120.74035438354184, -0.00014926155705541547]}}, {"type": "Feature", "properties": {"norad_id": 29494, "name": "DIRECTV 9S", "group": "intelsat", "lat": 1.1231990764990563, "lon": 118.52572188234872, "alt_km": 35796.02961952682, "timestamp": "2025-12-05T09:41:18.789334+00:00", "meta": {"OBJECT_NAME": "DIRECTV 9S", "OBJECT_ID": "2006-043A", "EPOCH": "2025-12-04T13:14:44.871936", "MEAN_MOTION": 1.00270512, "ECCENTRICITY": 0.0003237, "INCLINATION": 1.9176, "RA_OF_ASC_NODE": 83.2962, "ARG_OF_PERICENTER": 170.3541, "MEAN_ANOMALY": 277.4541, "EPHEMERIS_TYPE": 0, "CLASSIFICATION_TYPE": "U", "NORAD_CAT_ID": 29494, "ELEMENT_SET_NO": 999, "REV_AT_EPOCH": 4943, "BSTAR": 0, "MEAN_MOTION_DOT": -9.9e-07, "MEAN_MOTION_DDOT": 0}, "tle": {"line1": "1 29494U 06043A   25338.55190824 -.00000099  00000+0  00000+0 0  9993", "line2": "2 29494   1.9176  83.2962 0003237 170.3541 277.4541  1.00270512 49438"}}, "geometry": {"type": "Point", "coordinates": [118.52572188234872, 1.1231990764990563]}}, {"type": "Feature", "properties": {"norad_id": 31307, "name": "GALAXY 17 (G-17)", "group": "intelsat", "lat": 1.9720405857992882, "lon": 134.68071484271405, "alt_km": 35793.31430195933, "timestamp": "2025-12-05T09:41:18.789346+00:00", "meta": {"OBJECT_NAME": "GALAXY 17 (G-17)", "OBJECT_ID": "2007-016B", "EPOCH": "2025-12-04T13:19:21.929952", "MEAN_MOTION": 1.00270292, "ECCENTRICITY": 0.0006117, "INCLINATION": 2.478, "RA_OF_ASC_NODE": 82.3782, "ARG_OF_PERICENTER": 157.9017, "MEAN_ANOMALY": 308.189, "EPHEMERIS_TYPE": 0, "CLASSIFICATION_TYPE": "U", "NORAD_CAT_ID": 31307, "ELEMENT_SET_NO": 999, "REV_AT_EPOCH": 6785, "BSTAR": 0, "MEAN_MOTION_DOT": -1.93e-06, "MEAN_MOTION_DDOT": 0}, "tle": {"line1": "1 31307U 07016B   25338.55511493 -.00000193  00000+0  00000+0 0  9994", "line2": "2 31307   2.4780  82.3782 0006117 157.9017 308.1890  1.00270292 67850"}}, "geometry": {"type": "Point", "coordinates": [134.68071484271405, 1.9720405857992882]}}, {"type": "Feature", "properties": {"norad_id": 31862, "name": "DIRECTV 10", "group": "intelsat", "lat": -0.0005852231078185902, "lon": 116.98468239735753, "alt_km": 35785.85699930194, "timestamp": "2025-12-05T09:41:18.789358+00:00", "meta": {"OBJECT_NAME": "DIRECTV 10", "OBJECT_ID": "2007-032A", "EPOCH": "2025-12-04T13:14:14.921376", "MEAN_MOTION": 1.00273825, "ECCENTRICITY": 3.87e-05, "INCLINATION": 0.0007, "RA_OF_ASC_NODE": 238.2855, "ARG_OF_PERICENTER": 340.2831, "MEAN_ANOMALY": 310.8251, "EPHEMERIS_TYPE": 0, "CLASSIFICATION_TYPE": "U", "NORAD_CAT_ID": 31862, "ELEMENT_SET_NO": 999, "REV_AT_EPOCH": 4364, "BSTAR": 0, "MEAN_MOTION_DOT": -8.9e-07, "MEAN_MOTION_DDOT": 0}, "tle": {"line1": "1 31862U 07032A   25338.55156159 -.00000089  00000+0  00000+0 0  9996", "line2": "2 31862   0.0007 238.2855 0000387 340.2831 310.8251  1.00273825 43646"}}, "geometry": {"type": "Point", "coordinates": [116.98468239735753, -0.0005852231078185902]}}, {"type": "Feature", "properties": {"norad_id": 32253, "name": "INTELSAT 11 (IS-11)", "group": "intelsat", "lat": 1.8415465796199297, "lon": 117.64484518633614, "alt_km": 36155.676611975454, "timestamp": "2025-12-05T09:41:18.789369+00:00", "meta": {"OBJECT_NAME": "INTELSAT 11 (IS-11)", "OBJECT_ID": "2007-044B", "EPOCH": "2025-12-04T13:15:29.800800", "MEAN_MOTION": 0.99047143, "ECCENTRICITY": 0.0009295, "INCLINATION": 3.0574, "RA_OF_ASC_NODE": 81.0671, "ARG_OF_PERICENTER": 161.8583, "MEAN_ANOMALY": 291.3189, "EPHEMERIS_TYPE": 0, "CLASSIFICATION_TYPE": "U", "NORAD_CAT_ID": 32253, "ELEMENT_SET_NO": 999, "REV_AT_EPOCH": 6652, "BSTAR": 0, "MEAN_MOTION_DOT": 2.5e-07, "MEAN_MOTION_DDOT": 0}, "tle": {"line1": "1 32253U 07044B   25338.55242825  .00000025  00000+0  00000+0 0  9999", "line2": "2 32253   3.0574  81.0671 0009295 161.8583 291.3189  0.99047143 66525"}}, "geometry": {"type": "Point", "coordinates": [117.64484518633614, 1.8415465796199297]}}, {"type": "Feature", "properties": {"norad_id": 32388, "name": "HORIZONS-2", "group": "intelsat", "lat": 1.8736480290128992, "lon": 145.92937204934339, "alt_km": 35796.28895946975, "timestamp": "2025-12-05T09:41:18.789381+00:00", "meta": {"OBJECT_NAME": "HORIZONS-2", "OBJECT_ID": "2007-063B", "EPOCH": "2025-12-04T13:22:29.131104", "MEAN_MOTION": 1.00271685, "ECCENTRICITY": 0.0005031, "INCLINATION": 2.0989, "RA_OF_ASC_NODE": 83.0494, "ARG_OF_PERICENTER": 182.0483, "MEAN_ANOMALY": 295.3707, "EPHEMERIS_TYPE": 0, "CLASSIFICATION_TYPE": "U", "NORAD_CAT_ID": 32388, "ELEMENT_SET_NO": 999, "REV_AT_EPOCH": 6586, "BSTAR": 0, "MEAN_MOTION_DOT": -2.4e-06, "MEAN_MOTION_DDOT": 0}, "tle": {"line1": "1 32388U 07063B   25338.55728161 -.00000240  00000+0  00000+0 0  9991", "line2": "2 32388   2.0989  83.0494 0005031 182.0483 295.3707  1.00271685 65865"}}, "geometry": {"type": "Point", "coordinates": [145.92937204934339, 1.8736480290128992]}}, {"type": "Feature", "properties": {"norad_id": 32729, "name": "DIRECTV 11", "group": "intelsat", "lat": -0.0008316409542756232, "lon": 120.57771240141419, "alt_km": 35786.832634997874, "timestamp": "2025-12-05T09:41:18.789393+00:00", "meta": {"OBJECT_NAME": "DIRECTV 11", "OBJECT_ID": "2008-013A", "EPOCH": "2025-12-04T09:49:46.066080", "MEAN_MOTION": 1.00271822, "ECCENTRICITY": 2.82e-05, "INCLINATION": 0.0106, "RA_OF_ASC_NODE": 92.3257, "ARG_OF_PERICENTER": 156.2768, "MEAN_ANOMALY": 233.1284, "EPHEMERIS_TYPE": 0, "CLASSIFICATION_TYPE": "U", "NORAD_CAT_ID": 32729, "ELEMENT_SET_NO": 999, "REV_AT_EPOCH": 4364, "BSTAR": 0, "MEAN_MOTION_DOT": -1.11e-06, "MEAN_MOTION_DDOT": 0}, "tle": {"line1": "1 32729U 08013A   25338.40956095 -.00000111  00000+0  00000+0 0  9996", "line2": "2 32729   0.0106  92.3257 0000282 156.2768 233.1284  1.00271822 43640"}}, "geometry": {"type": "Point", "coordinates": [120.57771240141419, -0.0008316409542756232]}}, {"type": "Feature", "properties": {"norad_id": 32951, "name": "GALAXY 18 (G-18)", "group": "intelsat", "lat": 0.03661864192577624, "lon": 96.75061330307217, "alt_km": 35799.632217012724, "timestamp": "2025-12-05T09:41:18.789422+00:00", "meta": {"OBJECT_NAME": "GALAXY 18 (G-18)", "OBJECT_ID": "2008-024A", "EPOCH": "2025-12-04T14:02:38.764032", "MEAN_MOTION": 1.00268646, "ECCENTRICITY": 0.000325, "INCLINATION": 0.0161, "RA_OF_ASC_NODE": 1.1901, "ARG_OF_PERICENTER": 253.0124, "MEAN_ANOMALY": 267.1148, "EPHEMERIS_TYPE": 0, "CLASSIFICATION_TYPE": "U", "NORAD_CAT_ID": 32951, "ELEMENT_SET_NO": 999, "REV_AT_EPOCH": 4390, "BSTAR": 0, "MEAN_MOTION_DOT": 4e-07, "MEAN_MOTION_DDOT": 0}, "tle": {"line1": "1 32951U 08024A   25338.58517088  .00000040  00000+0  00000+0 0  9999", "line2": "2 32951   0.0161   1.1901 0003250 253.0124 267.1148  1.00268646 43907"}}, "geometry": {"type": "Point", "coordinates": [96.75061330307217, 0.03661864192577624]}}]}